MALLIGYONG-1            
1 58400U 23179A   23357.90952250  .00009029  00000+0  40161-3 0  9995
2 58400  97.4265 242.2592 0016181 158.9041 201.2866 15.21600811  4917
